<?xml version="1.0" encoding="UTF-8"?>
<ndm xmlns:xsi="http://www.w3.org/2001/XMLSchema-instance" xsi:noNamespaceSchemaLocation="https://sanaregistry.org/r/ndmxml_unqualified/ndmxml-2.0.0-master-2.0.xsd">
<omm id="CCSDS_OMM_VERS" version="2.0">
<header><CREATION_DATE/><ORIGINATOR/></header><body><segment><metadata><OBJECT_NAME>ONEWEB-0687</OBJECT_NAME><OBJECT_ID>2024-188B</OBJECT_ID><CENTER_NAME>EARTH</CENTER_NAME><REF_FRAME>TEME</REF_FRAME><TIME_SYSTEM>UTC</TIME_SYSTEM><MEAN_ELEMENT_THEORY>SGP4</MEAN_ELEMENT_THEORY></metadata><data><meanElements><EPOCH>2024-12-25T10:43:59.500416</EPOCH><MEAN_MOTION>14.83046675</MEAN_MOTION><ECCENTRICITY>.0004309</ECCENTRICITY><INCLINATION>86.5773</INCLINATION><RA_OF_ASC_NODE>142.0816</RA_OF_ASC_NODE><ARG_OF_PERICENTER>17.6630</ARG_OF_PERICENTER><MEAN_ANOMALY>342.4742</MEAN_ANOMALY></meanElements><tleParameters><EPHEMERIS_TYPE>0</EPHEMERIS_TYPE><CLASSIFICATION_TYPE>U</CLASSIFICATION_TYPE><NORAD_CAT_ID>61595</NORAD_CAT_ID><ELEMENT_SET_NO>999</ELEMENT_SET_NO><REV_AT_EPOCH>1278</REV_AT_EPOCH><BSTAR>.692E-3</BSTAR><MEAN_MOTION_DOT>.5654E-4</MEAN_MOTION_DOT><MEAN_MOTION_DDOT>0</MEAN_MOTION_DDOT></tleParameters></data></segment></body></omm>
<omm id="CCSDS_OMM_VERS" version="2.0">
<header><CREATION_DATE/><ORIGINATOR/></header><body><segment><metadata><OBJECT_NAME>ONEWEB-0688</OBJECT_NAME><OBJECT_ID>2024-188C</OBJECT_ID><CENTER_NAME>EARTH</CENTER_NAME><REF_FRAME>TEME</REF_FRAME><TIME_SYSTEM>UTC</TIME_SYSTEM><MEAN_ELEMENT_THEORY>SGP4</MEAN_ELEMENT_THEORY></metadata><data><meanElements><EPOCH>2024-12-25T10:48:49.089888</EPOCH><MEAN_MOTION>14.83044515</MEAN_MOTION><ECCENTRICITY>.0004032</ECCENTRICITY><INCLINATION>86.5783</INCLINATION><RA_OF_ASC_NODE>142.0968</RA_OF_ASC_NODE><ARG_OF_PERICENTER>22.4028</ARG_OF_PERICENTER><MEAN_ANOMALY>337.7370</MEAN_ANOMALY></meanElements><tleParameters><EPHEMERIS_TYPE>0</EPHEMERIS_TYPE><CLASSIFICATION_TYPE>U</CLASSIFICATION_TYPE><NORAD_CAT_ID>61596</NORAD_CAT_ID><ELEMENT_SET_NO>999</ELEMENT_SET_NO><REV_AT_EPOCH>1278</REV_AT_EPOCH><BSTAR>.69392E-3</BSTAR><MEAN_MOTION_DOT>.5669E-4</MEAN_MOTION_DOT><MEAN_MOTION_DDOT>0</MEAN_MOTION_DDOT></tleParameters></data></segment></body></omm>
<omm id="CCSDS_OMM_VERS" version="2.0">
<header><CREATION_DATE/><ORIGINATOR/></header><body><segment><metadata><OBJECT_NAME>ONEWEB-0689</OBJECT_NAME><OBJECT_ID>2024-188D</OBJECT_ID><CENTER_NAME>EARTH</CENTER_NAME><REF_FRAME>TEME</REF_FRAME><TIME_SYSTEM>UTC</TIME_SYSTEM><MEAN_ELEMENT_THEORY>SGP4</MEAN_ELEMENT_THEORY></metadata><data><meanElements><EPOCH>2024-12-25T22:09:23.110560</EPOCH><MEAN_MOTION>14.83063618</MEAN_MOTION><ECCENTRICITY>.0002841</ECCENTRICITY><INCLINATION>86.5712</INCLINATION><RA_OF_ASC_NODE>141.8464</RA_OF_ASC_NODE><ARG_OF_PERICENTER>56.6841</ARG_OF_PERICENTER><MEAN_ANOMALY>303.4654</MEAN_ANOMALY></meanElements><tleParameters><EPHEMERIS_TYPE>0</EPHEMERIS_TYPE><CLASSIFICATION_TYPE>U</CLASSIFICATION_TYPE><NORAD_CAT_ID>61597</NORAD_CAT_ID><ELEMENT_SET_NO>999</ELEMENT_SET_NO><REV_AT_EPOCH>1097</REV_AT_EPOCH><BSTAR>.15124E-2</BSTAR><MEAN_MOTION_DOT>.1234E-3</MEAN_MOTION_DOT><MEAN_MOTION_DDOT>0</MEAN_MOTION_DDOT></tleParameters></data></segment></body></omm>
<omm id="CCSDS_OMM_VERS" version="2.0">
<header><CREATION_DATE/><ORIGINATOR/></header><body><segment><metadata><OBJECT_NAME>ONEWEB-0690</OBJECT_NAME><OBJECT_ID>2024-188E</OBJECT_ID><CENTER_NAME>EARTH</CENTER_NAME><REF_FRAME>TEME</REF_FRAME><TIME_SYSTEM>UTC</TIME_SYSTEM><MEAN_ELEMENT_THEORY>SGP4</MEAN_ELEMENT_THEORY></metadata><data><meanElements><EPOCH>2024-12-25T10:27:03.477024</EPOCH><MEAN_MOTION>14.83012880</MEAN_MOTION><ECCENTRICITY>.0005591</ECCENTRICITY><INCLINATION>86.5774</INCLINATION><RA_OF_ASC_NODE>142.0727</RA_OF_ASC_NODE><ARG_OF_PERICENTER>13.2529</ARG_OF_PERICENTER><MEAN_ANOMALY>346.8840</MEAN_ANOMALY></meanElements><tleParameters><EPHEMERIS_TYPE>0</EPHEMERIS_TYPE><CLASSIFICATION_TYPE>U</CLASSIFICATION_TYPE><NORAD_CAT_ID>61598</NORAD_CAT_ID><ELEMENT_SET_NO>999</ELEMENT_SET_NO><REV_AT_EPOCH>1278</REV_AT_EPOCH><BSTAR>.14175E-2</BSTAR><MEAN_MOTION_DOT>.11554E-3</MEAN_MOTION_DOT><MEAN_MOTION_DDOT>0</MEAN_MOTION_DDOT></tleParameters></data></segment></body></omm>
<omm id="CCSDS_OMM_VERS" version="2.0">
<header><CREATION_DATE/><ORIGINATOR/></header><body><segment><metadata><OBJECT_NAME>ONEWEB-0691</OBJECT_NAME><OBJECT_ID>2024-188F</OBJECT_ID><CENTER_NAME>EARTH</CENTER_NAME><REF_FRAME>TEME</REF_FRAME><TIME_SYSTEM>UTC</TIME_SYSTEM><MEAN_ELEMENT_THEORY>SGP4</MEAN_ELEMENT_THEORY></metadata><data><meanElements><EPOCH>2024-12-25T10:40:57.306144</EPOCH><MEAN_MOTION>14.83028217</MEAN_MOTION><ECCENTRICITY>.0005108</ECCENTRICITY><INCLINATION>86.5803</INCLINATION><RA_OF_ASC_NODE>142.1062</RA_OF_ASC_NODE><ARG_OF_PERICENTER>16.0944</ARG_OF_PERICENTER><MEAN_ANOMALY>344.0440</MEAN_ANOMALY></meanElements><tleParameters><EPHEMERIS_TYPE>0</EPHEMERIS_TYPE><CLASSIFICATION_TYPE>U</CLASSIFICATION_TYPE><NORAD_CAT_ID>61599</NORAD_CAT_ID><ELEMENT_SET_NO>999</ELEMENT_SET_NO><REV_AT_EPOCH>1278</REV_AT_EPOCH><BSTAR>.68964E-3</BSTAR><MEAN_MOTION_DOT>.5632E-4</MEAN_MOTION_DOT><MEAN_MOTION_DDOT>0</MEAN_MOTION_DDOT></tleParameters></data></segment></body></omm>
<omm id="CCSDS_OMM_VERS" version="2.0">
<header><CREATION_DATE/><ORIGINATOR/></header><body><segment><metadata><OBJECT_NAME>ONEWEB-0692</OBJECT_NAME><OBJECT_ID>2024-188G</OBJECT_ID><CENTER_NAME>EARTH</CENTER_NAME><REF_FRAME>TEME</REF_FRAME><TIME_SYSTEM>UTC</TIME_SYSTEM><MEAN_ELEMENT_THEORY>SGP4</MEAN_ELEMENT_THEORY></metadata><data><meanElements><EPOCH>2024-12-25T10:53:45.008160</EPOCH><MEAN_MOTION>14.83031573</MEAN_MOTION><ECCENTRICITY>.0003576</ECCENTRICITY><INCLINATION>86.5735</INCLINATION><RA_OF_ASC_NODE>142.0739</RA_OF_ASC_NODE><ARG_OF_PERICENTER>54.2287</ARG_OF_PERICENTER><MEAN_ANOMALY>305.9268</MEAN_ANOMALY></meanElements><tleParameters><EPHEMERIS_TYPE>0</EPHEMERIS_TYPE><CLASSIFICATION_TYPE>U</CLASSIFICATION_TYPE><NORAD_CAT_ID>61600</NORAD_CAT_ID><ELEMENT_SET_NO>999</ELEMENT_SET_NO><REV_AT_EPOCH>1278</REV_AT_EPOCH><BSTAR>.71129E-3</BSTAR><MEAN_MOTION_DOT>.5808E-4</MEAN_MOTION_DOT><MEAN_MOTION_DDOT>0</MEAN_MOTION_DDOT></tleParameters></data></segment></body></omm>
<omm id="CCSDS_OMM_VERS" version="2.0">
<header><CREATION_DATE/><ORIGINATOR/></header><body><segment><metadata><OBJECT_NAME>ONEWEB-0693</OBJECT_NAME><OBJECT_ID>2024-188H</OBJECT_ID><CENTER_NAME>EARTH</CENTER_NAME><REF_FRAME>TEME</REF_FRAME><TIME_SYSTEM>UTC</TIME_SYSTEM><MEAN_ELEMENT_THEORY>SGP4</MEAN_ELEMENT_THEORY></metadata><data><meanElements><EPOCH>2024-12-25T22:09:29.784960</EPOCH><MEAN_MOTION>14.83034658</MEAN_MOTION><ECCENTRICITY>.0003543</ECCENTRICITY><INCLINATION>86.5715</INCLINATION><RA_OF_ASC_NODE>141.8368</RA_OF_ASC_NODE><ARG_OF_PERICENTER>50.1448</ARG_OF_PERICENTER><MEAN_ANOMALY>310.0086</MEAN_ANOMALY></meanElements><tleParameters><EPHEMERIS_TYPE>0</EPHEMERIS_TYPE><CLASSIFICATION_TYPE>U</CLASSIFICATION_TYPE><NORAD_CAT_ID>61601</NORAD_CAT_ID><ELEMENT_SET_NO>999</ELEMENT_SET_NO><REV_AT_EPOCH>1106</REV_AT_EPOCH><BSTAR>.79981E-3</BSTAR><MEAN_MOTION_DOT>.6529E-4</MEAN_MOTION_DOT><MEAN_MOTION_DDOT>0</MEAN_MOTION_DDOT></tleParameters></data></segment></body></omm>
<omm id="CCSDS_OMM_VERS" version="2.0">
<header><CREATION_DATE/><ORIGINATOR/></header><body><segment><metadata><OBJECT_NAME>ONEWEB-0695</OBJECT_NAME><OBJECT_ID>2024-188J</OBJECT_ID><CENTER_NAME>EARTH</CENTER_NAME><REF_FRAME>TEME</REF_FRAME><TIME_SYSTEM>UTC</TIME_SYSTEM><MEAN_ELEMENT_THEORY>SGP4</MEAN_ELEMENT_THEORY></metadata><data><meanElements><EPOCH>2024-12-25T10:53:10.602816</EPOCH><MEAN_MOTION>14.83032659</MEAN_MOTION><ECCENTRICITY>.0002908</ECCENTRICITY><INCLINATION>86.5752</INCLINATION><RA_OF_ASC_NODE>142.0867</RA_OF_ASC_NODE><ARG_OF_PERICENTER>44.4891</ARG_OF_PERICENTER><MEAN_ANOMALY>315.6565</MEAN_ANOMALY></meanElements><tleParameters><EPHEMERIS_TYPE>0</EPHEMERIS_TYPE><CLASSIFICATION_TYPE>U</CLASSIFICATION_TYPE><NORAD_CAT_ID>61602</NORAD_CAT_ID><ELEMENT_SET_NO>999</ELEMENT_SET_NO><REV_AT_EPOCH>1278</REV_AT_EPOCH><BSTAR>.70456E-3</BSTAR><MEAN_MOTION_DOT>.5753E-4</MEAN_MOTION_DOT><MEAN_MOTION_DDOT>0</MEAN_MOTION_DDOT></tleParameters></data></segment></body></omm>

</ndm>
