ONEWEB-0687             
1 61595U 24188B   24360.44721644  .00005654  00000+0  69200-3 0  9995
2 61595  86.5773 142.0816 0004309  17.6630 342.4742 14.83046675 12783
ONEWEB-0688             
1 61596U 24188C   24360.45056817  .00005669  00000+0  69392-3 0  9998
2 61596  86.5783 142.0968 0004032  22.4028 337.7370 14.83044515 12786
ONEWEB-0689             
1 61597U 24188D   24360.92318415  .00012340  00000+0  15124-2 0  9993
2 61597  86.5712 141.8464 0002841  56.6841 303.4654 14.83063618 10974
ONEWEB-0690             
1 61598U 24188E   24360.43545691  .00011554  00000+0  14175-2 0  9999
2 61598  86.5774 142.0727 0005591  13.2529 346.8840 14.83012880 12789
ONEWEB-0691             
1 61599U 24188F   24360.44510771  .00005632  00000+0  68964-3 0  9998
2 61599  86.5803 142.1062 0005108  16.0944 344.0440 14.83028217 12789
ONEWEB-0692             
1 61600U 24188G   24360.45399315  .00005808  00000+0  71129-3 0  9993
2 61600  86.5735 142.0739 0003576  54.2287 305.9268 14.83031573 12780
ONEWEB-0693             
1 61601U 24188H   24360.92326140  .00006529  00000+0  79981-3 0  9997
2 61601  86.5715 141.8368 0003543  50.1448 310.0086 14.83034658 11064
ONEWEB-0695             
1 61602U 24188J   24360.45359494  .00005753  00000+0  70456-3 0  9990
2 61602  86.5752 142.0867 0002908  44.4891 315.6565 14.83032659 12787
